{"fetched_at":"2026-07-21T07:06:55.004Z","source":"https://celestrak.org/NORAD/elements/gp.php?NAME=HULIANWANG&FORMAT=JSON","constellation":"guowang","records":[{"OBJECT_NAME":"HULIANWANG DIGUI-44","OBJECT_ID":"2025-162E","EPOCH":"2026-07-20T21:18:59.854464","CLASSIFICATION_TYPE":"U","MEAN_MOTION":13.29318814,"ECCENTRICITY":0.00014576,"INCLINATION":50.0006,"RA_OF_ASC_NODE":144.8196,"ARG_OF_PERICENTER":350.1957,"MEAN_ANOMALY":9.8886,"EPHEMERIS_TYPE":0,"NORAD_CAT_ID":65047,"ELEMENT_SET_NO":999,"REV_AT_EPOCH":4785,"BSTAR":0.000075923161,"MEAN_MOTION_DOT":-8.9e-7,"MEAN_MOTION_DDOT":0},{"OBJECT_NAME":"HULIANWANG DIGUI-45","OBJECT_ID":"2025-162F","EPOCH":"2026-07-20T21:07:05.952864","CLASSIFICATION_TYPE":"U","MEAN_MOTION":13.29327473,"ECCENTRICITY":0.00002673,"INCLINATION":50.0036,"RA_OF_ASC_NODE":144.8612,"ARG_OF_PERICENTER":352.2808,"MEAN_ANOMALY":7.806,"EPHEMERIS_TYPE":0,"NORAD_CAT_ID":65048,"ELEMENT_SET_NO":999,"REV_AT_EPOCH":4784,"BSTAR":0.000086470027,"MEAN_MOTION_DOT":-8.4e-7,"MEAN_MOTION_DDOT":0},{"OBJECT_NAME":"HULIANWANG DIGUI-46","OBJECT_ID":"2025-162G","EPOCH":"2026-07-20T20:55:06.300480","CLASSIFICATION_TYPE":"U","MEAN_MOTION":13.29327271,"ECCENTRICITY":0.00002313,"INCLINATION":50.0054,"RA_OF_ASC_NODE":144.8688,"ARG_OF_PERICENTER":349.8952,"MEAN_ANOMALY":10.1916,"EPHEMERIS_TYPE":0,"NORAD_CAT_ID":65049,"ELEMENT_SET_NO":999,"REV_AT_EPOCH":4784,"BSTAR":0.00008000327,"MEAN_MOTION_DOT":-8.7e-7,"MEAN_MOTION_DDOT":0},{"OBJECT_NAME":"HULIANWANG DIGUI-47","OBJECT_ID":"2025-162H","EPOCH":"2026-07-20T20:43:04.761984","CLASSIFICATION_TYPE":"U","MEAN_MOTION":13.29326863,"ECCENTRICITY":0.00002425,"INCLINATION":50.0019,"RA_OF_ASC_NODE":144.7266,"ARG_OF_PERICENTER":338.6212,"MEAN_ANOMALY":21.465,"EPHEMERIS_TYPE":0,"NORAD_CAT_ID":65050,"ELEMENT_SET_NO":999,"REV_AT_EPOCH":4784,"BSTAR":0.000065043369,"MEAN_MOTION_DOT":-9.4e-7,"MEAN_MOTION_DDOT":0},{"OBJECT_NAME":"HULIANWANG DIGUI-48","OBJECT_ID":"2025-162J","EPOCH":"2026-07-20T20:31:02.375040","CLASSIFICATION_TYPE":"U","MEAN_MOTION":13.29327551,"ECCENTRICITY":0.00002542,"INCLINATION":50.0028,"RA_OF_ASC_NODE":144.7106,"ARG_OF_PERICENTER":348.4954,"MEAN_ANOMALY":11.5912,"EPHEMERIS_TYPE":0,"NORAD_CAT_ID":65051,"ELEMENT_SET_NO":999,"REV_AT_EPOCH":4784,"BSTAR":0.000058556447,"MEAN_MOTION_DOT":-9.7e-7,"MEAN_MOTION_DDOT":0},{"OBJECT_NAME":"HULIANWANG DIGUI-49","OBJECT_ID":"2025-168A","EPOCH":"2026-07-20T22:00:37.048608","CLASSIFICATION_TYPE":"U","MEAN_MOTION":13.2932216,"ECCENTRICITY":0.00082461,"INCLINATION":50.0006,"RA_OF_ASC_NODE":204.9912,"ARG_OF_PERICENTER":208.5141,"MEAN_ANOMALY":151.5281,"EPHEMERIS_TYPE":0,"NORAD_CAT_ID":65106,"ELEMENT_SET_NO":999,"REV_AT_EPOCH":4717,"BSTAR":0.000045729962,"MEAN_MOTION_DOT":-0.00000103,"MEAN_MOTION_DDOT":0},{"OBJECT_NAME":"HULIANWANG DIGUI-50","OBJECT_ID":"2025-168B","EPOCH":"2026-07-20T21:48:30.894624","CLASSIFICATION_TYPE":"U","MEAN_MOTION":13.29321891,"ECCENTRICITY":0.00088189,"INCLINATION":49.9976,"RA_OF_ASC_NODE":204.8599,"ARG_OF_PERICENTER":194.2536,"MEAN_ANOMALY":165.8088,"EPHEMERIS_TYPE":0,"NORAD_CAT_ID":65107,"ELEMENT_SET_NO":999,"REV_AT_EPOCH":4717,"BSTAR":0.000052853324,"MEAN_MOTION_DOT":-9.9e-7,"MEAN_MOTION_DDOT":0},{"OBJECT_NAME":"HULIANWANG DIGUI-51","OBJECT_ID":"2025-168C","EPOCH":"2026-07-20T23:24:13.202784","CLASSIFICATION_TYPE":"U","MEAN_MOTION":13.29325117,"ECCENTRICITY":0.00101386,"INCLINATION":50.0013,"RA_OF_ASC_NODE":204.6521,"ARG_OF_PERICENTER":193.5026,"MEAN_ANOMALY":166.5576,"EPHEMERIS_TYPE":0,"NORAD_CAT_ID":65108,"ELEMENT_SET_NO":999,"REV_AT_EPOCH":4718,"BSTAR":0.000060832506,"MEAN_MOTION_DOT":-9.6e-7,"MEAN_MOTION_DDOT":0},{"OBJECT_NAME":"HULIANWANG DIGUI-52","OBJECT_ID":"2025-168D","EPOCH":"2026-07-20T23:12:34.243200","CLASSIFICATION_TYPE":"U","MEAN_MOTION":13.29323045,"ECCENTRICITY":0.00103883,"INCLINATION":50.0006,"RA_OF_ASC_NODE":204.586,"ARG_OF_PERICENTER":206.1301,"MEAN_ANOMALY":153.9048,"EPHEMERIS_TYPE":0,"NORAD_CAT_ID":65109,"ELEMENT_SET_NO":999,"REV_AT_EPOCH":4718,"BSTAR":0.000064792234,"MEAN_MOTION_DOT":-9.4e-7,"MEAN_MOTION_DDOT":0},{"OBJECT_NAME":"HULIANWANG DIGUI-53","OBJECT_ID":"2025-168E","EPOCH":"2026-07-20T23:00:16.150464","CLASSIFICATION_TYPE":"U","MEAN_MOTION":13.29326491,"ECCENTRICITY":0.00088865,"INCLINATION":50.0014,"RA_OF_ASC_NODE":204.5714,"ARG_OF_PERICENTER":197.1078,"MEAN_ANOMALY":162.9495,"EPHEMERIS_TYPE":0,"NORAD_CAT_ID":65110,"ELEMENT_SET_NO":999,"REV_AT_EPOCH":4718,"BSTAR":0.000058308841,"MEAN_MOTION_DOT":-9.7e-7,"MEAN_MOTION_DDOT":0},{"OBJECT_NAME":"HULIANWANG DIGUI-54","OBJECT_ID":"2025-168F","EPOCH":"2026-07-20T22:24:27.674496","CLASSIFICATION_TYPE":"U","MEAN_MOTION":13.29326575,"ECCENTRICITY":0.00107127,"INCLINATION":49.9965,"RA_OF_ASC_NODE":204.3006,"ARG_OF_PERICENTER":201.3442,"MEAN_ANOMALY":158.6984,"EPHEMERIS_TYPE":0,"NORAD_CAT_ID":65111,"ELEMENT_SET_NO":999,"REV_AT_EPOCH":4718,"BSTAR":0.00004262085,"MEAN_MOTION_DOT":-0.00000104,"MEAN_MOTION_DDOT":0},{"OBJECT_NAME":"HULIANWANG DIGUI-55","OBJECT_ID":"2025-168G","EPOCH":"2026-07-20T22:48:23.795424","CLASSIFICATION_TYPE":"U","MEAN_MOTION":13.29322886,"ECCENTRICITY":0.00117767,"INCLINATION":49.997,"RA_OF_ASC_NODE":204.4005,"ARG_OF_PERICENTER":197.3133,"MEAN_ANOMALY":162.7338,"EPHEMERIS_TYPE":0,"NORAD_CAT_ID":65112,"ELEMENT_SET_NO":999,"REV_AT_EPOCH":4718,"BSTAR":0.000047097382,"MEAN_MOTION_DOT":-0.00000102,"MEAN_MOTION_DDOT":0},{"OBJECT_NAME":"HULIANWANG DIGUI-56","OBJECT_ID":"2025-168H","EPOCH":"2026-07-20T22:36:28.181376","CLASSIFICATION_TYPE":"U","MEAN_MOTION":13.29322309,"ECCENTRICITY":0.0011947,"INCLINATION":49.9962,"RA_OF_ASC_NODE":204.3333,"ARG_OF_PERICENTER":217.1979,"MEAN_ANOMALY":142.8066,"EPHEMERIS_TYPE":0,"NORAD_CAT_ID":65113,"ELEMENT_SET_NO":999,"REV_AT_EPOCH":4718,"BSTAR":0.00003824407,"MEAN_MOTION_DOT":-0.00000106,"MEAN_MOTION_DDOT":0},{"OBJECT_NAME":"HULIANWANG DIGUI-57","OBJECT_ID":"2025-168J","EPOCH":"2026-07-20T22:12:28.569888","CLASSIFICATION_TYPE":"U","MEAN_MOTION":13.29326523,"ECCENTRICITY":0.00095487,"INCLINATION":49.999,"RA_OF_ASC_NODE":204.3311,"ARG_OF_PERICENTER":209.51,"MEAN_ANOMALY":150.5234,"EPHEMERIS_TYPE":0,"NORAD_CAT_ID":65114,"ELEMENT_SET_NO":999,"REV_AT_EPOCH":4719,"BSTAR":0.000054162954,"MEAN_MOTION_DOT":-9.9e-7,"MEAN_MOTION_DDOT":0},{"OBJECT_NAME":"HULIANWANG DIGUI-58","OBJECT_ID":"2025-174A","EPOCH":"2026-07-20T21:15:07.447968","CLASSIFICATION_TYPE":"U","MEAN_MOTION":13.24407711,"ECCENTRICITY":0.00018397,"INCLINATION":86.4939,"RA_OF_ASC_NODE":240.6324,"ARG_OF_PERICENTER":101.4281,"MEAN_ANOMALY":258.706,"EPHEMERIS_TYPE":0,"NORAD_CAT_ID":65164,"ELEMENT_SET_NO":999,"REV_AT_EPOCH":4525,"BSTAR":0.00004751817,"MEAN_MOTION_DOT":3.5e-7,"MEAN_MOTION_DDOT":0},{"OBJECT_NAME":"HULIANWANG DIGUI-59","OBJECT_ID":"2025-174B","EPOCH":"2026-07-20T21:26:03.440832","CLASSIFICATION_TYPE":"U","MEAN_MOTION":13.24407743,"ECCENTRICITY":0.00019288,"INCLINATION":86.49,"RA_OF_ASC_NODE":240.5077,"ARG_OF_PERICENTER":99.7667,"MEAN_ANOMALY":260.3684,"EPHEMERIS_TYPE":0,"NORAD_CAT_ID":65165,"ELEMENT_SET_NO":999,"REV_AT_EPOCH":4525,"BSTAR":0.000060161958,"MEAN_MOTION_DOT":4e-7,"MEAN_MOTION_DDOT":0}]}
