HULIANWANG DIGUI-44     
1 65047U 25162E   26201.88819276 -.00000089  00000+0  75923-4 0  9995
2 65047  50.0006 144.8196 0001457 350.1957   9.8886 13.29318814 47858
HULIANWANG DIGUI-45     
1 65048U 25162F   26201.87993001 -.00000084  00000+0  86470-4 0  9998
2 65048  50.0036 144.8612 0000267 352.2808   7.8060 13.29327473 47843
HULIANWANG DIGUI-46     
1 65049U 25162G   26201.87160070 -.00000087  00000+0  80003-4 0  9990
2 65049  50.0054 144.8688 0000231 349.8952  10.1916 13.29327271 47843
HULIANWANG DIGUI-47     
1 65050U 25162H   26201.86324956 -.00000094  00000+0  65043-4 0  9991
2 65050  50.0019 144.7266 0000242 338.6212  21.4650 13.29326863 47840
HULIANWANG DIGUI-48     
1 65051U 25162J   26201.85488860 -.00000097  00000+0  58556-4 0  9990
2 65051  50.0028 144.7106 0000254 348.4954  11.5912 13.29327551 47845
HULIANWANG DIGUI-49     
1 65106U 25168A   26201.91709547 -.00000103  00000+0  45730-4 0  9990
2 65106  50.0006 204.9912 0008246 208.5141 151.5281 13.29322160 47170
HULIANWANG DIGUI-50     
1 65107U 25168B   26201.90869091 -.00000099  00000+0  52853-4 0  9999
2 65107  49.9976 204.8599 0008818 194.2536 165.8088 13.29321891 47171
HULIANWANG DIGUI-51     
1 65108U 25168C   26201.97515281 -.00000096  00000+0  60833-4 0  9990
2 65108  50.0013 204.6521 0010138 193.5026 166.5576 13.29325117 47180
HULIANWANG DIGUI-52     
1 65109U 25168D   26201.96706300 -.00000094  00000+0  64792-4 0  9990
2 65109  50.0006 204.5860 0010388 206.1301 153.9048 13.29323045 47184
HULIANWANG DIGUI-53     
1 65110U 25168E   26201.95852026 -.00000097  00000+0  58309-4 0  9998
2 65110  50.0014 204.5714 0008886 197.1078 162.9495 13.29326491 47187
HULIANWANG DIGUI-54     
1 65111U 25168F   26201.93365364 -.00000104  00000+0  42621-4 0  9990
2 65111  49.9965 204.3006 0010712 201.3442 158.6984 13.29326575 47184
HULIANWANG DIGUI-55     
1 65112U 25168G   26201.95027541 -.00000102  00000+0  47097-4 0  9995
2 65112  49.9970 204.4005 0011776 197.3133 162.7338 13.29322886 47183
HULIANWANG DIGUI-56     
1 65113U 25168H   26201.94199284 -.00000106  00000+0  38244-4 0  9997
2 65113  49.9962 204.3333 0011947 217.1979 142.8066 13.29322309 47184
HULIANWANG DIGUI-57     
1 65114U 25168J   26201.92533067 -.00000099  00000+0  54163-4 0  9996
2 65114  49.9990 204.3311 0009548 209.5100 150.5234 13.29326523 47193
HULIANWANG DIGUI-58     
1 65164U 25174A   26201.88550287  .00000035  00000+0  47518-4 0  9991
2 65164  86.4939 240.6324 0001839 101.4281 258.7060 13.24407711 45256
HULIANWANG DIGUI-59     
1 65165U 25174B   26201.89309538  .00000040  00000+0  60162-4 0  9990
2 65165  86.4900 240.5077 0001928  99.7667 260.3684 13.24407743 45251
